{
    "links": {
        "self": "http://www.neowsapp.com/rest/v1/neo/3989087?api_key=iIulBulltgU6a56xZRHN4H3l9WmuAYTsLGpBGhQ2"
    },
    "id": "3989087",
    "neo_reference_id": "3989087",
    "name": "(2020 BE5)",
    "designation": "2020 BE5",
    "nasa_jpl_url": "http://ssd.jpl.nasa.gov/sbdb.cgi?sstr=3989087",
    "absolute_magnitude_h": 26.27,
    "estimated_diameter": {
        "kilometers": {
            "estimated_diameter_min": 0.0148099972,
            "estimated_diameter_max": 0.0331161605
        },
        "meters": {
            "estimated_diameter_min": 14.8099972066,
            "estimated_diameter_max": 33.1161605006
        },
        "miles": {
            "estimated_diameter_min": 0.0092025028,
            "estimated_diameter_max": 0.0205774218
        },
        "feet": {
            "estimated_diameter_min": 48.5892312353,
            "estimated_diameter_max": 108.6488240167
        }
    },
    "is_potentially_hazardous_asteroid": false,
    "close_approach_data": [
        {
            "close_approach_date": "1937-09-03",
            "close_approach_date_full": "1937-Sep-03 17:40",
            "epoch_date_close_approach": -1020147600000,
            "relative_velocity": {
                "kilometers_per_second": "8.1939707479",
                "kilometers_per_hour": "29498.2946925494",
                "miles_per_hour": "18329.0931660455"
            },
            "miss_distance": {
                "astronomical": "0.2713034086",
                "lunar": "105.5370259454",
                "kilometers": "40586412.050299682",
                "miles": "25219227.0169603316"
            },
            "orbiting_body": "Earth"
        },
        {
            "close_approach_date": "1945-02-10",
            "close_approach_date_full": "1945-Feb-10 20:47",
            "epoch_date_close_approach": -785387580000,
            "relative_velocity": {
                "kilometers_per_second": "25.6960240293",
                "kilometers_per_hour": "92505.6865053209",
                "miles_per_hour": "57479.4361510423"
            },
            "miss_distance": {
                "astronomical": "0.4367066731",
                "lunar": "169.8788958359",
                "kilometers": "65330388.110546297",
                "miles": "40594420.7835890186"
            },
            "orbiting_body": "Earth"
        },
        {
            "close_approach_date": "1946-08-16",
            "close_approach_date_full": "1946-Aug-16 19:37",
            "epoch_date_close_approach": -737698980000,
            "relative_velocity": {
                "kilometers_per_second": "19.9079218664",
                "kilometers_per_hour": "71668.5187189572",
                "miles_per_hour": "44532.0304228987"
            },
            "miss_distance": {
                "astronomical": "0.2850367665",
                "lunar": "110.8793021685",
                "kilometers": "42640893.140087355",
                "miles": "26495822.369641299"
            },
            "orbiting_body": "Earth"
        },
        {
            "close_approach_date": "2020-01-19",
            "close_approach_date_full": "2020-Jan-19 22:34",
            "epoch_date_close_approach": 1579473240000,
            "relative_velocity": {
                "kilometers_per_second": "13.5699163241",
                "kilometers_per_hour": "48851.6987667812",
                "miles_per_hour": "30354.5458253925"
            },
            "miss_distance": {
                "astronomical": "0.0262268765",
                "lunar": "10.2022549585",
                "kilometers": "3923484.861153055",
                "miles": "2437940.443919959"
            },
            "orbiting_body": "Earth"
        }
    ],
    "orbital_data": {
        "orbit_id": "3",
        "orbit_determination_date": "2020-01-25 05:45:11",
        "first_observation_date": "2020-01-22",
        "last_observation_date": "2020-01-25",
        "data_arc_in_days": 3,
        "observations_used": 19,
        "orbit_uncertainty": "8",
        "minimum_orbit_intersection": ".0236978",
        "jupiter_tisserand_invariant": "4.457",
        "epoch_osculation": "2458871.5",
        "eccentricity": ".4480538656736464",
        "semi_major_axis": "1.470850489364994",
        "inclination": "14.63638226741675",
        "ascending_node_longitude": "124.0425028844843",
        "orbital_period": "651.5552084925491",
        "perihelion_distance": ".8118302417770341",
        "perihelion_argument": "289.0147251120694",
        "aphelion_distance": "2.129870736952955",
        "perihelion_time": "2458821.010723142295",
        "mean_anomaly": "27.89654572914316",
        "mean_motion": ".5525241688005273",
        "equinox": "J2000",
        "orbit_class": {
            "orbit_class_type": "APO",
            "orbit_class_description": "Near-Earth asteroid orbits which cross the Earth’s orbit similar to that of 1862 Apollo",
            "orbit_class_range": "a (semi-major axis) > 1.0 AU; q (perihelion) < 1.017 AU"
        }
    },
    "is_sentry_object": false
}